*******************************************************************************
Ephemeris / WWW_USER Tue Mar 27 21:50:24 2018 Pasadena, USA      / Horizons    
*******************************************************************************
Target body name: Saturn (699)                    {source: sat389}
Center body name: Solar System Barycenter (0)     {source: DE431mx}
Center-site name: BODY CENTER
*******************************************************************************
Start time      : A.D. 2018-Feb-08 00:00:00.0000 TDB
Stop  time      : A.D. 2019-Feb-08 00:00:00.0000 TDB
Step-size       : 7200 minutes
*******************************************************************************
Center geodetic : 0.00000000,0.00000000,0.0000000 {E-lon(deg),Lat(deg),Alt(km)}
Center cylindric: 0.00000000,0.00000000,0.0000000 {E-lon(deg),Dxy(km),Dz(km)}
Center radii    : (undefined)                                                  
Output units    : AU-D                                                         
Output type     : GEOMETRIC cartesian states
Output format   : 2 (position and velocity)
Reference frame : ICRF/J2000.0                                                 
Coordinate systm: Ecliptic and Mean Equinox of Reference Epoch                 
*******************************************************************************
JDTDB
   X     Y     Z
   VX    VY    VZ
*******************************************************************************
$$SOE
2458157.500000000 = A.D. 2018-Feb-08 00:00:00.0000 TDB 
   2.482182506527177E-01 -1.005457999315108E+01  1.649398121124933E-01
   5.271018925623300E-03  1.190919080831568E-04 -2.115821472107698E-04
2458162.500000000 = A.D. 2018-Feb-13 00:00:00.0000 TDB 
   2.745736425696140E-01 -1.005394523334325E+01  1.638797563076645E-01
   5.270706756780649E-03  1.348443060815286E-04 -2.124144648770007E-04
2458167.500000000 = A.D. 2018-Feb-18 00:00:00.0000 TDB 
   3.009228582404148E-01 -1.005323431631384E+01  1.628173342496266E-01
   5.269088371413218E-03  1.491939407962565E-04 -2.123962393692456E-04
2458172.500000000 = A.D. 2018-Feb-23 00:00:00.0000 TDB 
   3.272683091616474E-01 -1.005245482751147E+01  1.617562034372073E-01
   5.269450715566843E-03  1.628953944617287E-04 -2.122438186362542E-04
2458177.500000000 = A.D. 2018-Feb-28 00:00:00.0000 TDB 
   3.536167073950463E-01 -1.005160183830864E+01  1.606931439293290E-01
   5.269482346016150E-03  1.784975565197432E-04 -2.130402729220249E-04
2458182.500000000 = A.D. 2018-Mar-05 00:00:00.0000 TDB 
   3.799597826438361E-01 -1.005067161249947E+01  1.596270375991864E-01
   5.267693364373372E-03  1.932112618177426E-04 -2.132006463256557E-04
2458187.500000000 = A.D. 2018-Mar-10 00:00:00.0000 TDB 
   4.062967877258739E-01 -1.004967193278537E+01  1.585619558121332E-01
   5.267507530717302E-03  2.067215708562351E-04 -2.129036306742748E-04
2458192.500000000 = A.D. 2018-Mar-15 00:00:00.0000 TDB 
   4.326360589928043E-01 -1.004860059872793E+01  1.574959211823835E-01
   5.267834586053669E-03  2.220865391070480E-04 -2.136160185724576E-04
2458197.500000000 = A.D. 2018-Mar-20 00:00:00.0000 TDB 
   4.589712394241373E-01 -1.004745150989397E+01  1.564264048248054E-01
   5.266065898410261E-03  2.372018859570077E-04 -2.139948598679942E-04
2458202.500000000 = A.D. 2018-Mar-25 00:00:00.0000 TDB 
   4.852984904333510E-01 -1.004623162398613E+01  1.553573578516496E-01
   5.265309394694747E-03  2.506918141761095E-04 -2.136402745030141E-04
2458207.500000000 = A.D. 2018-Mar-30 00:00:00.0000 TDB 
   5.116265494967285E-01 -1.004494171998195E+01  1.542882966620457E-01
   5.265778751721294E-03  2.656702535923657E-04 -2.141775172549000E-04
2458212.500000000 = A.D. 2018-Apr-04 00:00:00.0000 TDB 
   5.379519051168317E-01 -1.004357416648390E+01  1.532156194274948E-01
   5.264102516320599E-03  2.810924836745431E-04 -2.147342251331157E-04
2458217.500000000 = A.D. 2018-Apr-09 00:00:00.0000 TDB 
   5.642681065570919E-01 -1.004213421260831E+01  1.521426553586569E-01
   5.262744385435630E-03  2.947096445324198E-04 -2.143960418783595E-04
2458222.500000000 = A.D. 2018-Apr-14 00:00:00.0000 TDB 
   5.905830523573037E-01 -1.004062546924784E+01  1.510704632344279E-01
   5.263189591100503E-03  3.092458716236545E-04 -2.147135320756790E-04
2458227.500000000 = A.D. 2018-Apr-19 00:00:00.0000 TDB 
   6.168965794997813E-01 -1.003903985175076E+01  1.499948750435592E-01
   5.261792581221934E-03  3.248710516062441E-04 -2.154129702069916E-04
2458232.500000000 = A.D. 2018-Apr-24 00:00:00.0000 TDB 
   6.432004137977231E-01 -1.003738016647321E+01  1.489181425118737E-01
   5.259994662763603E-03  3.387164419812885E-04 -2.151585441219111E-04
2458237.500000000 = A.D. 2018-Apr-29 00:00:00.0000 TDB 
   6.695005482959078E-01 -1.003565228367304E+01  1.478426788455114E-01
   5.260247283299482E-03  3.527948649010379E-04 -2.152306800294901E-04
2458242.500000000 = A.D. 2018-May-04 00:00:00.0000 TDB 
   6.958001916896269E-01 -1.003384882821561E+01  1.467643478498127E-01
   5.259175160782918E-03  3.685127710017615E-04 -2.160201079393042E-04
2458247.500000000 = A.D. 2018-May-09 00:00:00.0000 TDB 
   7.220902877377904E-01 -1.003196976343044E+01  1.456840145680831E-01
   5.257014013449946E-03  3.827344591697741E-04 -2.159334061228063E-04
2458252.500000000 = A.D. 2018-May-14 00:00:00.0000 TDB 
   7.483741115284369E-01 -1.003002241914493E+01  1.446051148527639E-01
   5.256870020381444E-03  3.964882343676125E-04 -2.158088749643753E-04
2458257.500000000 = A.D. 2018-May-19 00:00:00.0000 TDB 
   7.746577166802761E-01 -1.002800120372132E+01  1.435241487401147E-01
   5.256151551761246E-03  4.121524986167874E-04 -2.166159136395548E-04
2458262.500000000 = A.D. 2018-May-24 00:00:00.0000 TDB 
   8.009324551443390E-01 -1.002590318449964E+01  1.424404468572120E-01
   5.253776337959842E-03  4.267340841099702E-04 -2.167034750633862E-04
2458267.500000000 = A.D. 2018-May-29 00:00:00.0000 TDB 
   8.271984958124525E-01 -1.002373617797324E+01  1.413580026839813E-01
   5.253081150931996E-03  4.402199247417547E-04 -2.163966343877295E-04
2458272.500000000 = A.D. 2018-Jun-03 00:00:00.0000 TDB 
   8.534638530853887E-01 -1.002149717530600E+01  1.402744506375322E-01
   5.252650602265492E-03  4.556422374474283E-04 -2.171186351630879E-04
2458277.500000000 = A.D. 2018-Jun-08 00:00:00.0000 TDB 
   8.797214928153432E-01 -1.001918071218398E+01  1.391876540724813E-01
   5.250223406529280E-03  4.705976587397248E-04 -2.174050610959033E-04
2458282.500000000 = A.D. 2018-Jun-13 00:00:00.0000 TDB 
   9.059684440850606E-01 -1.001679407736567E+01  1.381016445278860E-01
   5.248969569209110E-03  4.840185138487259E-04 -2.170210294611023E-04
2458287.500000000 = A.D. 2018-Jun-18 00:00:00.0000 TDB 
   9.322134753429475E-01 -1.001433721267277E+01  1.370155005519473E-01
   5.248787876199521E-03  4.990915418010426E-04 -2.175996582195781E-04
2458292.500000000 = A.D. 2018-Jun-23 00:00:00.0000 TDB 
   9.584521605793098E-01 -1.001180282541603E+01  1.359258825335942E-01
   5.246471927820625E-03  5.143676182433156E-04 -2.180744408563040E-04
2458297.500000000 = A.D. 2018-Jun-28 00:00:00.0000 TDB 
   9.846787538008139E-01 -1.000919672252905E+01  1.348363331649938E-01
   5.244617866266528E-03  5.278768515304128E-04 -2.176888988425641E-04
2458302.500000000 = A.D. 2018-Jul-03 00:00:00.0000 TDB 
   1.010901528910833E+00 -1.000652176455456E+01  1.337474840335957E-01
   5.244442315800042E-03  5.425289448374769E-04 -2.180639923848078E-04
2458307.500000000 = A.D. 2018-Jul-08 00:00:00.0000 TDB 
   1.037119307126367E+00 -1.000376988130382E+01  1.326552721112350E-01
   5.242314402777889E-03  5.580618907381825E-04 -2.187026205666315E-04
2458312.500000000 = A.D. 2018-Jul-13 00:00:00.0000 TDB 
   1.063324253873252E+00 -1.000094463861803E+01  1.315622931491306E-01
   5.239952641924246E-03  5.717981729485396E-04 -2.183962398708398E-04
2458317.500000000 = A.D. 2018-Jul-18 00:00:00.0000 TDB 
   1.089523000241070E+00 -9.998051357001755E+00  1.304706106336264E-01
   5.239647712618490E-03  5.859704379798008E-04 -2.185230983986688E-04
2458322.500000000 = A.D. 2018-Jul-23 00:00:00.0000 TDB 
   1.115717791400829E+00 -9.995082330796105E+00  1.293760100726714E-01
   5.237837916441444E-03  6.015834277831028E-04 -2.192461276577115E-04
2458327.500000000 = A.D. 2018-Jul-28 00:00:00.0000 TDB 
   1.141899708150766E+00 -9.992038367030478E+00  1.282797741527500E-01
   5.235088615191744E-03  6.156239434075689E-04 -2.190696683944934E-04
2458332.500000000 = A.D. 2018-Aug-02 00:00:00.0000 TDB 
   1.168072870166723E+00 -9.988926500399787E+00  1.271850998333365E-01
   5.234445848807143E-03  6.294090548610125E-04 -2.189751273773764E-04
2458337.500000000 = A.D. 2018-Aug-07 00:00:00.0000 TDB 
   1.194242576460517E+00 -9.985740521682006E+00  1.260882399210431E-01
   5.232990239153656E-03  6.450308928446833E-04 -2.197500084168432E-04
2458342.500000000 = A.D. 2018-Aug-12 00:00:00.0000 TDB 
   1.220399955013920E+00 -9.982478323593472E+00  1.249889691772477E-01
   5.230014910417342E-03  6.594768995683165E-04 -2.197725720914501E-04
2458347.500000000 = A.D. 2018-Aug-17 00:00:00.0000 TDB 
   1.246546069789393E+00 -9.979147705075640E+00  1.238911800537070E-01
   5.228886240426280E-03  6.729788972217434E-04 -2.194964843324159E-04
2458352.500000000 = A.D. 2018-Aug-22 00:00:00.0000 TDB 
   1.272688474365263E+00 -9.975744834889221E+00  1.227921245572279E-01
   5.227728102735883E-03  6.884039665762731E-04 -2.202127207947278E-04
2458357.500000000 = A.D. 2018-Aug-27 00:00:00.0000 TDB 
   1.298819580190600E+00 -9.972264935816277E+00  1.216900718234488E-01
   5.224621209658080E-03  7.032133790847988E-04 -2.204232729823358E-04
2458362.500000000 = A.D. 2018-Sep-01 00:00:00.0000 TDB 
   1.324937284276614E+00 -9.968715576315672E+00  1.205891084055426E-01
   5.222885517894049E-03  7.165751417976388E-04 -2.200285851953624E-04
